56075,ONEWEB-0634,2023,109.46,148.0,+,87.91,Active,1,LEO,India,UK,Commercial,Communications,LVM3,1 56075U 23043AF  25054.82436185  .00000155  00000+0  37774-3 0  9999,2 56075  87.9137 354.4959 0001983  68.7307 291.4035 13.15550416 94414,13.15550416,0.0001983,LEO
56076,ONEWEB-0635,2023,109.46,148.0,+,87.91,Active,1,LEO,India,UK,Commercial,Communications,LVM3,1 56076U 23043AG  25054.21115487  .00000099  00000+0  22995-3 0  9998,2 56076  87.9107 354.6344 0001641  90.7993 269.3325 13.15547222 94360,13.15547222,0.0001641,LEO
56077,ONEWEB-0636,2023,109.46,148.0,+,87.91,Active,1,LEO,India,UK,Commercial,Communications,LVM3,1 56077U 23043AH  25054.88774398  .00000136  00000+0  32754-3 0  9990,2 56077  87.9115 354.4998 0001672  88.0088 272.1234 13.15549433 94437,13.15549433,0.0001672,LEO
56078,ONEWEB-0637,2023,109.46,148.0,+,87.91,Active,1,LEO,India,UK,Commercial,Communications,LVM3,1 56078U 23043AJ  25054.19688208  .00000008  00000+0 -11718-4 0  9996,2 56078  87.9134 354.6195 0001471  77.8529 282.2766 13.15547013 94369,13.15547013,0.0001471,LEO
56079,ONEWEB-0647,2023,109.46,148.0,+,87.91,Active,1,LEO,India,UK,Commercial,Communications,LVM3,1 56079U 23043AK  25054.19214206  .00000152  00000+0  36879-3 0  9993,2 56079  87.9131 354.6326 0001857  86.2569 273.8773 13.15549701 93447,13.15549701,0.0001857,LEO
56080,ONEWEB-0651,2023,109.46,148.0,+,87.91,Active,1,LEO,India,UK,Commercial,Communications,LVM3,1 56080U 23043AL  25054.18738346  .00000058  00000+0  12110-3 0  9997,2 56080  87.9134 354.6181 0001498  84.3362 275.7939 13.15547684 93445,13.15547684,0.0001498,LEO
56081,ONEWEB-0718,2023,109.46,148.0,+,87.91,Active,1,LEO,India,UK,Commercial,Communications,LVM3,1 56081U 23043AM  25054.86714702 -.00000061  00000+0 -19728-3 0  9991,2 56081  87.9134 354.4678 0001943  65.2873 294.8459 13.15550708 94457,13.15550708,0.0001943,LEO
56710,ONEWEB-0561,2023,109.03,-1.0,+,87.93,Active,0,LEO,USA,UK,Unknown,Unknown,Unknown,1 56710U 23068A   25054.41486753  .00000054  00000+0  10190-3 0  9994,2 56710  87.9294   9.7443 0001749 101.0172 259.1158 13.20771602 87005,13.20771602,0.0001749,LEO
